{"type": "FeatureCollection", "features": [ {"type": "Feature", "properties": {"norad_id": 29963, "name": "FENGYUN 1C DEB", "group": "fengyun-1c-debris", "lat": 10.682933814759336, "lon": 47.37438371601313, "alt_km": 826.3142676689477, "timestamp": "2025-12-07T20:38:14.336683+00:00", "meta": {"OBJECT_NAME": "FENGYUN 1C DEB", "OBJECT_ID": "1999-025KM", "EPOCH": "2025-12-07T03:45:49.529664", "MEAN_MOTION": 14.29429297, "ECCENTRICITY": 0.00518781, "INCLINATION": 98.9984, "RA_OF_ASC_NODE": 224.9357, "ARG_OF_PERICENTER": 318.4275, "MEAN_ANOMALY": 195.0628, "EPHEMERIS_TYPE": 0, "CLASSIFICATION_TYPE": "U", "NORAD_CAT_ID": 29963, "ELEMENT_SET_NO": 999, "REV_AT_EPOCH": 98063, "BSTAR": 0.0012702816, "MEAN_MOTION_DOT": 3.242e-05, "MEAN_MOTION_DDOT": 0}, "tle": {"line1": "1 29963U 99025KM  25341.15682326  .00003242  00000+0  12703-2 0  9997", "line2": "2 29963  98.9984 224.9357 0051878 318.4275 195.0628 14.29429297980635"}}, "geometry": {"type": "Point", "coordinates": [47.37438371601313, 10.682933814759336]}}, {"type": "Feature", "properties": {"norad_id": 29964, "name": "FENGYUN 1C DEB", "group": "fengyun-1c-debris", "lat": 9.13780535350453, "lon": 6.1116648489862975, "alt_km": 921.7820010138548, "timestamp": "2025-12-07T20:38:14.336693+00:00", "meta": {"OBJECT_NAME": "FENGYUN 1C DEB", "OBJECT_ID": "1999-025KN", "EPOCH": "2025-12-07T00:58:54.456384", "MEAN_MOTION": 14.02718197, "ECCENTRICITY": 0.01310237, "INCLINATION": 98.3714, "RA_OF_ASC_NODE": 184.0012, "ARG_OF_PERICENTER": 285.73, "MEAN_ANOMALY": 72.9449, "EPHEMERIS_TYPE": 0, "CLASSIFICATION_TYPE": "U", "NORAD_CAT_ID": 29964, "ELEMENT_SET_NO": 999, "REV_AT_EPOCH": 96237, "BSTAR": 0.0015868847, "MEAN_MOTION_DOT": 2.604e-05, "MEAN_MOTION_DDOT": 0}, "tle": {"line1": "1 29964U 99025KN  25341.04090806  .00002604  00000+0  15869-2 0  9999", "line2": "2 29964  98.3714 184.0012 0131023 285.7300  72.9449 14.02718197962377"}}, "geometry": {"type": "Point", "coordinates": [6.1116648489862975, 9.13780535350453]}}, {"type": "Feature", "properties": {"norad_id": 29965, "name": "FENGYUN 1C DEB", "group": "fengyun-1c-debris", "lat": 42.46322267281037, "lon": -31.68105315295667, "alt_km": 820.5072661852764, "timestamp": "2025-12-07T20:38:14.336703+00:00", "meta": {"OBJECT_NAME": "FENGYUN 1C DEB", "OBJECT_ID": "1999-025KP", "EPOCH": "2025-12-07T05:13:52.253760", "MEAN_MOTION": 13.95770543, "ECCENTRICITY": 0.01462205, "INCLINATION": 98.9622, "RA_OF_ASC_NODE": 335.9979, "ARG_OF_PERICENTER": 83.0856, "MEAN_ANOMALY": 337.3835, "EPHEMERIS_TYPE": 0, "CLASSIFICATION_TYPE": "U", "NORAD_CAT_ID": 29965, "ELEMENT_SET_NO": 999, "REV_AT_EPOCH": 96199, "BSTAR": 0.00044724144, "MEAN_MOTION_DOT": 6.26e-06, "MEAN_MOTION_DDOT": 0}, "tle": {"line1": "1 29965U 99025KP  25341.21796590  .00000626  00000+0  44724-3 0  9997", "line2": "2 29965  98.9622 335.9979 0146220  83.0856 337.3835 13.95770543961999"}}, "geometry": {"type": "Point", "coordinates": [-31.68105315295667, 42.46322267281037]}}, {"type": "Feature", "properties": {"norad_id": 29966, "name": "FENGYUN 1C DEB", "group": "fengyun-1c-debris", "lat": 78.10160291793707, "lon": 135.8570138048526, "alt_km": 795.356209742532, "timestamp": "2025-12-07T20:38:14.336713+00:00", "meta": {"OBJECT_NAME": "FENGYUN 1C DEB", "OBJECT_ID": "1999-025KQ", "EPOCH": "2025-12-07T06:46:42.294144", "MEAN_MOTION": 14.25737626, "ECCENTRICITY": 0.00397958, "INCLINATION": 99.4918, "RA_OF_ASC_NODE": 187.7949, "ARG_OF_PERICENTER": 0.8449, "MEAN_ANOMALY": 359.2788, "EPHEMERIS_TYPE": 0, "CLASSIFICATION_TYPE": "U", "NORAD_CAT_ID": 29966, "ELEMENT_SET_NO": 999, "REV_AT_EPOCH": 97965, "BSTAR": 0.00066951978, "MEAN_MOTION_DOT": 1.552e-05, "MEAN_MOTION_DDOT": 0}, "tle": {"line1": "1 29966U 99025KQ  25341.28243396  .00001552  00000+0  66952-3 0  9992", "line2": "2 29966  99.4918 187.7949 0039795   0.8449 359.2788 14.25737626979658"}}, "geometry": {"type": "Point", "coordinates": [135.8570138048526, 78.10160291793707]}}, {"type": "Feature", "properties": {"norad_id": 29967, "name": "FENGYUN 1C DEB", "group": "fengyun-1c-debris", "lat": -63.33334665702627, "lon": 76.53714643340925, "alt_km": 767.3093013358039, "timestamp": "2025-12-07T20:38:14.336724+00:00", "meta": {"OBJECT_NAME": "FENGYUN 1C DEB", "OBJECT_ID": "1999-025KR", "EPOCH": "2025-12-06T04:34:59.346624", "MEAN_MOTION": 14.23524428, "ECCENTRICITY": 0.0075541, "INCLINATION": 98.8666, "RA_OF_ASC_NODE": 56.7471, "ARG_OF_PERICENTER": 311.6601, "MEAN_ANOMALY": 75.8607, "EPHEMERIS_TYPE": 0, "CLASSIFICATION_TYPE": "U", "NORAD_CAT_ID": 29967, "ELEMENT_SET_NO": 999, "REV_AT_EPOCH": 97129, "BSTAR": 0.0024566433, "MEAN_MOTION_DOT": 5.714e-05, "MEAN_MOTION_DDOT": 0}, "tle": {"line1": "1 29967U 99025KR  25340.19096466  .00005714  00000+0  24566-2 0  9994", "line2": "2 29967  98.8666  56.7471 0075541 311.6601  75.8607 14.23524428971294"}}, "geometry": {"type": "Point", "coordinates": [76.53714643340925, -63.33334665702627]}}, {"type": "Feature", "properties": {"norad_id": 29968, "name": "FENGYUN 1C DEB", "group": "fengyun-1c-debris", "lat": 35.20788996087506, "lon": 158.0123448118472, "alt_km": 912.9788882617058, "timestamp": "2025-12-07T20:38:14.336734+00:00", "meta": {"OBJECT_NAME": "FENGYUN 1C DEB", "OBJECT_ID": "1999-025KS", "EPOCH": "2025-12-07T06:23:05.474112", "MEAN_MOTION": 14.07250378, "ECCENTRICITY": 0.00903489, "INCLINATION": 98.8041, "RA_OF_ASC_NODE": 331.1556, "ARG_OF_PERICENTER": 10.1453, "MEAN_ANOMALY": 6.4999, "EPHEMERIS_TYPE": 0, "CLASSIFICATION_TYPE": "U", "NORAD_CAT_ID": 29968, "ELEMENT_SET_NO": 999, "REV_AT_EPOCH": 96972, "BSTAR": 0.00046281816, "MEAN_MOTION_DOT": 7.62e-06, "MEAN_MOTION_DDOT": 0}, "tle": {"line1": "1 29968U 99025KS  25341.26603558  .00000762  00000+0  46282-3 0  9998", "line2": "2 29968  98.8041 331.1556 0090348  10.1453   6.4999 14.07250378969725"}}, "geometry": {"type": "Point", "coordinates": [158.0123448118472, 35.20788996087506]}}, {"type": "Feature", "properties": {"norad_id": 29969, "name": "FENGYUN 1C DEB", "group": "fengyun-1c-debris", "lat": 71.57637128725011, "lon": -86.28189423245793, "alt_km": 751.4859069939066, "timestamp": "2025-12-07T20:38:14.336744+00:00", "meta": {"OBJECT_NAME": "FENGYUN 1C DEB", "OBJECT_ID": "1999-025KT", "EPOCH": "2025-12-07T05:09:51.244416", "MEAN_MOTION": 14.33141232, "ECCENTRICITY": 0.00420655, "INCLINATION": 98.7717, "RA_OF_ASC_NODE": 65.4514, "ARG_OF_PERICENTER": 67.1694, "MEAN_ANOMALY": 314.3643, "EPHEMERIS_TYPE": 0, "CLASSIFICATION_TYPE": "U", "NORAD_CAT_ID": 29969, "ELEMENT_SET_NO": 999, "REV_AT_EPOCH": 97583, "BSTAR": 0.0027046444, "MEAN_MOTION_DOT": 7.459e-05, "MEAN_MOTION_DDOT": 0}, "tle": {"line1": "1 29969U 99025KT  25341.21517644  .00007459  00000+0  27046-2 0  9990", "line2": "2 29969  98.7717  65.4514 0042065  67.1694 314.3643 14.33141232975831"}}, "geometry": {"type": "Point", "coordinates": [-86.28189423245793, 71.57637128725011]}}, {"type": "Feature", "properties": {"norad_id": 29970, "name": "FENGYUN 1C DEB", "group": "fengyun-1c-debris", "lat": 57.395095668205364, "lon": 104.02928166362074, "alt_km": 729.0376836597634, "timestamp": "2025-12-07T20:38:14.336754+00:00", "meta": {"OBJECT_NAME": "FENGYUN 1C DEB", "OBJECT_ID": "1999-025KU", "EPOCH": "2025-12-07T05:44:31.708896", "MEAN_MOTION": 14.43926135, "ECCENTRICITY": 0.0090488, "INCLINATION": 98.808, "RA_OF_ASC_NODE": 269.3587, "ARG_OF_PERICENTER": 204.0395, "MEAN_ANOMALY": 294.1641, "EPHEMERIS_TYPE": 0, "CLASSIFICATION_TYPE": "U", "NORAD_CAT_ID": 29970, "ELEMENT_SET_NO": 999, "REV_AT_EPOCH": 99041, "BSTAR": 0.00081390997, "MEAN_MOTION_DOT": 2.87e-05, "MEAN_MOTION_DDOT": 0}, "tle": {"line1": "1 29970U 99025KU  25341.23925589  .00002870  00000+0  81391-3 0  9991", "line2": "2 29970  98.8080 269.3587 0090488 204.0395 294.1641 14.43926135990412"}}, "geometry": {"type": "Point", "coordinates": [104.02928166362074, 57.395095668205364]}}, {"type": "Feature", "properties": {"norad_id": 29971, "name": "FENGYUN 1C DEB", "group": "fengyun-1c-debris", "lat": -13.290512290202743, "lon": -160.33382359445986, "alt_km": 819.386329805785, "timestamp": "2025-12-07T20:38:14.336764+00:00", "meta": {"OBJECT_NAME": "FENGYUN 1C DEB", "OBJECT_ID": "1999-025KV", "EPOCH": "2025-12-07T01:14:31.440192", "MEAN_MOTION": 14.1815082, "ECCENTRICITY": 0.00236379, "INCLINATION": 98.6835, "RA_OF_ASC_NODE": 20.9445, "ARG_OF_PERICENTER": 183.7937, "MEAN_ANOMALY": 205.9886, "EPHEMERIS_TYPE": 0, "CLASSIFICATION_TYPE": "U", "NORAD_CAT_ID": 29971, "ELEMENT_SET_NO": 999, "REV_AT_EPOCH": 97259, "BSTAR": 0.0014346423, "MEAN_MOTION_DOT": 2.912e-05, "MEAN_MOTION_DDOT": 0}, "tle": {"line1": "1 29971U 99025KV  25341.05175278  .00002912  00000+0  14346-2 0  9996", "line2": "2 29971  98.6835  20.9445 0023637 183.7937 205.9886 14.18150820972592"}}, "geometry": {"type": "Point", "coordinates": [-160.33382359445986, -13.290512290202743]}}, {"type": "Feature", "properties": {"norad_id": 29972, "name": "FENGYUN 1C DEB", "group": "fengyun-1c-debris", "lat": -50.76412532542221, "lon": 162.45252256610866, "alt_km": 721.9168106708512, "timestamp": "2025-12-07T20:38:14.336774+00:00", "meta": {"OBJECT_NAME": "FENGYUN 1C DEB", "OBJECT_ID": "1999-025KW", "EPOCH": "2025-12-07T06:46:14.081088", "MEAN_MOTION": 14.66232488, "ECCENTRICITY": 0.0065298, "INCLINATION": 98.921, "RA_OF_ASC_NODE": 352.9149, "ARG_OF_PERICENTER": 29.1012, "MEAN_ANOMALY": 34.7494, "EPHEMERIS_TYPE": 0, "CLASSIFICATION_TYPE": "U", "NORAD_CAT_ID": 29972, "ELEMENT_SET_NO": 999, "REV_AT_EPOCH": 99406, "BSTAR": 0.0019221819, "MEAN_MOTION_DOT": 0.00010884, "MEAN_MOTION_DDOT": 0}, "tle": {"line1": "1 29972U 99025KW  25341.28210742  .00010884  00000+0  19222-2 0  9993", "line2": "2 29972  98.9210 352.9149 0065298  29.1012  34.7494 14.66232488994061"}}, "geometry": {"type": "Point", "coordinates": [162.45252256610866, -50.76412532542221]}}]}